{
    "links": {
        "self": "http://www.neowsapp.com/rest/v1/neo/3430404?api_key=iIulBulltgU6a56xZRHN4H3l9WmuAYTsLGpBGhQ2"
    },
    "id": "3430404",
    "neo_reference_id": "3430404",
    "name": "(2008 TP10)",
    "designation": "2008 TP10",
    "nasa_jpl_url": "http://ssd.jpl.nasa.gov/sbdb.cgi?sstr=3430404",
    "absolute_magnitude_h": 22.5,
    "estimated_diameter": {
        "kilometers": {
            "estimated_diameter_min": 0.0840533402,
            "estimated_diameter_max": 0.1879489824
        },
        "meters": {
            "estimated_diameter_min": 84.0533402073,
            "estimated_diameter_max": 187.9489824394
        },
        "miles": {
            "estimated_diameter_min": 0.0522283081,
            "estimated_diameter_max": 0.1167860472
        },
        "feet": {
            "estimated_diameter_min": 275.7655606856,
            "estimated_diameter_max": 616.6305395464
        }
    },
    "is_potentially_hazardous_asteroid": false,
    "close_approach_data": [
        {
            "close_approach_date": "2008-08-01",
            "close_approach_date_full": "2008-Aug-01 19:21",
            "epoch_date_close_approach": 1217618460000,
            "relative_velocity": {
                "kilometers_per_second": "11.2870485879",
                "kilometers_per_hour": "40633.3749162798",
                "miles_per_hour": "25247.998986174"
            },
            "miss_distance": {
                "astronomical": "0.1574368966",
                "lunar": "61.2429527774",
                "kilometers": "23552224.390770242",
                "miles": "14634673.6175916596"
            },
            "orbiting_body": "Earth"
        }
    ],
    "orbital_data": {
        "orbit_id": "13",
        "orbit_determination_date": "2020-11-16 14:38:04",
        "first_observation_date": "2008-10-08",
        "last_observation_date": "2008-10-20",
        "data_arc_in_days": 12,
        "observations_used": 27,
        "orbit_uncertainty": "9",
        "minimum_orbit_intersection": ".00628568",
        "jupiter_tisserand_invariant": "3.442",
        "epoch_osculation": "2454749.5",
        "eccentricity": ".6037037614427122",
        "semi_major_axis": "2.151643269152622",
        "inclination": "3.649894051094053",
        "ascending_node_longitude": "230.0426185031091",
        "orbital_period": "1152.799636302849",
        "perihelion_distance": ".8526881342822903",
        "perihelion_argument": "59.91566529849855",
        "aphelion_distance": "3.450598404022955",
        "perihelion_time": "2454665.475751713287",
        "mean_anomaly": "26.2393640929898",
        "mean_motion": ".312283235232931",
        "equinox": "J2000",
        "orbit_class": {
            "orbit_class_type": "APO",
            "orbit_class_description": "Near-Earth asteroid orbits which cross the Earth’s orbit similar to that of 1862 Apollo",
            "orbit_class_range": "a (semi-major axis) > 1.0 AU; q (perihelion) < 1.017 AU"
        }
    },
    "is_sentry_object": false
}